CCSDS_OMM_VERS = 2.0
CREATION_DATE  = 
ORIGINATOR     = 

OBJECT_NAME    = RASSVET-3 14
OBJECT_ID      = 2026-061P
CENTER_NAME    = EARTH
REF_FRAME      = TEME
TIME_SYSTEM    = UTC
MEAN_ELEMENT_THEORY = SGP/SGP4

EPOCH          = 2026-04-03T01:10:57.105984
MEAN_MOTION    = 15.89169452
ECCENTRICITY   = .00257435
INCLINATION    = 82.2966
RA_OF_ASC_NODE = 97.0006
ARG_OF_PERICENTER = 35.4460
MEAN_ANOMALY   = 324.8516

EPHEMERIS_TYPE = 0
CLASSIFICATION_TYPE = U
NORAD_CAT_ID   = 68373
ELEMENT_SET_NO = 999
REV_AT_EPOCH   = 164
BSTAR          = .28336458E-3
MEAN_MOTION_DOT = .83524E-3
MEAN_MOTION_DDOT = .1278838E-5

CCSDS_OMM_VERS = 2.0
CREATION_DATE  = 
ORIGINATOR     = 

OBJECT_NAME    = RASSVET-3 15
OBJECT_ID      = 2026-061Q
CENTER_NAME    = EARTH
REF_FRAME      = TEME
TIME_SYSTEM    = UTC
MEAN_ELEMENT_THEORY = SGP/SGP4

EPOCH          = 2026-04-03T01:10:51.383712
MEAN_MOTION    = 15.89180614
ECCENTRICITY   = .00255236
INCLINATION    = 82.2967
RA_OF_ASC_NODE = 97.0007
ARG_OF_PERICENTER = 35.4749
MEAN_ANOMALY   = 324.8213

EPHEMERIS_TYPE = 0
CLASSIFICATION_TYPE = U
NORAD_CAT_ID   = 68374
ELEMENT_SET_NO = 999
REV_AT_EPOCH   = 164
BSTAR          = .28147509E-3
MEAN_MOTION_DOT = .82975E-3
MEAN_MOTION_DDOT = .1247526E-5

CCSDS_OMM_VERS = 2.0
CREATION_DATE  = 
ORIGINATOR     = 

OBJECT_NAME    = RASSVET-3 16
OBJECT_ID      = 2026-061R
CENTER_NAME    = EARTH
REF_FRAME      = TEME
TIME_SYSTEM    = UTC
MEAN_ELEMENT_THEORY = SGP/SGP4

EPOCH          = 2026-04-03T05:40:38.430624
MEAN_MOTION    = 15.89888730
ECCENTRICITY   = .00245818
INCLINATION    = 82.2956
RA_OF_ASC_NODE = 96.7842
ARG_OF_PERICENTER = 36.3033
MEAN_ANOMALY   = 323.9900

EPHEMERIS_TYPE = 0
CLASSIFICATION_TYPE = U
NORAD_CAT_ID   = 68375
ELEMENT_SET_NO = 999
REV_AT_EPOCH   = 167
BSTAR          = .36324834E-3
MEAN_MOTION_DOT = .110643E-2
MEAN_MOTION_DDOT = .3145054E-5

CCSDS_OMM_VERS = 2.0
CREATION_DATE  = 
ORIGINATOR     = 

OBJECT_NAME    = SUPERVIEW NEO-2 OBJECT A
OBJECT_ID      = 2026-062A
CENTER_NAME    = EARTH
REF_FRAME      = TEME
TIME_SYSTEM    = UTC
MEAN_ELEMENT_THEORY = SGP/SGP4

EPOCH          = 2026-04-03T06:55:12.244224
MEAN_MOTION    = 15.20613401
ECCENTRICITY   = .00063584
INCLINATION    = 97.4363
RA_OF_ASC_NODE = 101.6579
ARG_OF_PERICENTER = 235.5724
MEAN_ANOMALY   = 124.4911

EPHEMERIS_TYPE = 0
CLASSIFICATION_TYPE = U
NORAD_CAT_ID   = 68377
ELEMENT_SET_NO = 999
REV_AT_EPOCH   = 127
BSTAR          = .261903E-3
MEAN_MOTION_DOT = .5676E-4
MEAN_MOTION_DDOT = 0

CCSDS_OMM_VERS = 2.0
CREATION_DATE  = 
ORIGINATOR     = 

OBJECT_NAME    = SUPERVIEW NEO-2 OBJECT B
OBJECT_ID      = 2026-062B
CENTER_NAME    = EARTH
REF_FRAME      = TEME
TIME_SYSTEM    = UTC
MEAN_ELEMENT_THEORY = SGP/SGP4

EPOCH          = 2026-03-31T17:19:08.069952
MEAN_MOTION    = 15.20585060
ECCENTRICITY   = .00089524
INCLINATION    = 97.4347
RA_OF_ASC_NODE = 99.1253
ARG_OF_PERICENTER = 250.4427
MEAN_ANOMALY   = 109.5842

EPHEMERIS_TYPE = 0
CLASSIFICATION_TYPE = U
NORAD_CAT_ID   = 68378
ELEMENT_SET_NO = 999
REV_AT_EPOCH   = 88
BSTAR          = .19790811E-3
MEAN_MOTION_DOT = .427E-4
MEAN_MOTION_DDOT = 0

CCSDS_OMM_VERS = 2.0
CREATION_DATE  = 
ORIGINATOR     = 

OBJECT_NAME    = CZ-2D R/B
OBJECT_ID      = 2026-062C
CENTER_NAME    = EARTH
REF_FRAME      = TEME
TIME_SYSTEM    = UTC
MEAN_ELEMENT_THEORY = SGP/SGP4

EPOCH          = 2026-04-03T07:06:16.879680
MEAN_MOTION    = 15.31182364
ECCENTRICITY   = .00528373
INCLINATION    = 97.4979
RA_OF_ASC_NODE = 101.6626
ARG_OF_PERICENTER = 32.6742
MEAN_ANOMALY   = 327.7749

EPHEMERIS_TYPE = 0
CLASSIFICATION_TYPE = U
NORAD_CAT_ID   = 68379
ELEMENT_SET_NO = 999
REV_AT_EPOCH   = 128
BSTAR          = .53255157E-3
MEAN_MOTION_DOT = .16687E-3
MEAN_MOTION_DDOT = 0

CCSDS_OMM_VERS = 2.0
CREATION_DATE  = 
ORIGINATOR     = 

OBJECT_NAME    = STARLINK-36296
OBJECT_ID      = 2026-063A
CENTER_NAME    = EARTH
REF_FRAME      = TEME
TIME_SYSTEM    = UTC
MEAN_ELEMENT_THEORY = SGP/SGP4

EPOCH          = 2026-04-02T18:00:02.000160
MEAN_MOTION    = 15.97982213
ECCENTRICITY   = .00015083
INCLINATION    = 97.2834
RA_OF_ASC_NODE = 233.5389
ARG_OF_PERICENTER = 67.8630
MEAN_ANOMALY   = 74.8208

EPHEMERIS_TYPE = 0
CLASSIFICATION_TYPE = U
NORAD_CAT_ID   = 68380
ELEMENT_SET_NO = 999
REV_AT_EPOCH   = 232
BSTAR          = -.38470053E-2
MEAN_MOTION_DOT = -.1726598E-1
MEAN_MOTION_DDOT = .88222495E-3

CCSDS_OMM_VERS = 2.0
CREATION_DATE  = 
ORIGINATOR     = 

OBJECT_NAME    = STARLINK-37111
OBJECT_ID      = 2026-063B
CENTER_NAME    = EARTH
REF_FRAME      = TEME
TIME_SYSTEM    = UTC
MEAN_ELEMENT_THEORY = SGP/SGP4

EPOCH          = 2026-04-02T18:00:02.000160
MEAN_MOTION    = 15.98104329
ECCENTRICITY   = .00015717
INCLINATION    = 97.2834
RA_OF_ASC_NODE = 233.5399
ARG_OF_PERICENTER = 67.6845
MEAN_ANOMALY   = 76.8108

EPHEMERIS_TYPE = 0
CLASSIFICATION_TYPE = U
NORAD_CAT_ID   = 68381
ELEMENT_SET_NO = 999
REV_AT_EPOCH   = 232
BSTAR          = -.38168645E-2
MEAN_MOTION_DOT = -.1724681E-1
MEAN_MOTION_DDOT = .88158768E-3

CCSDS_OMM_VERS = 2.0
CREATION_DATE  = 
ORIGINATOR     = 

OBJECT_NAME    = STARLINK-36946
OBJECT_ID      = 2026-063C
CENTER_NAME    = EARTH
REF_FRAME      = TEME
TIME_SYSTEM    = UTC
MEAN_ELEMENT_THEORY = SGP/SGP4

EPOCH          = 2026-04-02T18:00:02.000160
MEAN_MOTION    = 15.98248988
ECCENTRICITY   = .00014806
INCLINATION    = 97.2827
RA_OF_ASC_NODE = 233.5405
ARG_OF_PERICENTER = 74.3083
MEAN_ANOMALY   = 72.6109

EPHEMERIS_TYPE = 0
CLASSIFICATION_TYPE = U
NORAD_CAT_ID   = 68382
ELEMENT_SET_NO = 999
REV_AT_EPOCH   = 232
BSTAR          = -.38221941E-2
MEAN_MOTION_DOT = -.1740716E-1
MEAN_MOTION_DDOT = .89842052E-3

CCSDS_OMM_VERS = 2.0
CREATION_DATE  = 
ORIGINATOR     = 

OBJECT_NAME    = STARLINK-37121
OBJECT_ID      = 2026-063D
CENTER_NAME    = EARTH
REF_FRAME      = TEME
TIME_SYSTEM    = UTC
MEAN_ELEMENT_THEORY = SGP/SGP4

EPOCH          = 2026-04-02T18:00:02.000160
MEAN_MOTION    = 15.98510861
ECCENTRICITY   = .00016076
INCLINATION    = 97.2829
RA_OF_ASC_NODE = 233.5429
ARG_OF_PERICENTER = 66.6097
MEAN_ANOMALY   = 84.9503

EPHEMERIS_TYPE = 0
CLASSIFICATION_TYPE = U
NORAD_CAT_ID   = 68383
ELEMENT_SET_NO = 999
REV_AT_EPOCH   = 232
BSTAR          = -.37639177E-2
MEAN_MOTION_DOT = -.1739258E-1
MEAN_MOTION_DDOT = .89964098E-3

CCSDS_OMM_VERS = 2.0
CREATION_DATE  = 
ORIGINATOR     = 

OBJECT_NAME    = STARLINK-37137
OBJECT_ID      = 2026-063E
CENTER_NAME    = EARTH
REF_FRAME      = TEME
TIME_SYSTEM    = UTC
MEAN_ELEMENT_THEORY = SGP/SGP4

EPOCH          = 2026-04-02T18:00:02.000160
MEAN_MOTION    = 15.98372709
ECCENTRICITY   = .00016389
INCLINATION    = 97.2831
RA_OF_ASC_NODE = 233.5416
ARG_OF_PERICENTER = 66.3758
MEAN_ANOMALY   = 82.6105

EPHEMERIS_TYPE = 0
CLASSIFICATION_TYPE = U
NORAD_CAT_ID   = 68384
ELEMENT_SET_NO = 999
REV_AT_EPOCH   = 232
BSTAR          = -.37776827E-2
MEAN_MOTION_DOT = -.1732404E-1
MEAN_MOTION_DDOT = .89164231E-3

CCSDS_OMM_VERS = 2.0
CREATION_DATE  = 
ORIGINATOR     = 

OBJECT_NAME    = STARLINK-37128
OBJECT_ID      = 2026-063F
CENTER_NAME    = EARTH
REF_FRAME      = TEME
TIME_SYSTEM    = UTC
MEAN_ELEMENT_THEORY = SGP/SGP4

EPOCH          = 2026-04-02T18:00:02.000160
MEAN_MOTION    = 15.98657525
ECCENTRICITY   = .0001616
INCLINATION    = 97.2831
RA_OF_ASC_NODE = 233.5440
ARG_OF_PERICENTER = 74.3986
MEAN_ANOMALY   = 79.7580

EPHEMERIS_TYPE = 0
CLASSIFICATION_TYPE = U
NORAD_CAT_ID   = 68385
ELEMENT_SET_NO = 999
REV_AT_EPOCH   = 227
BSTAR          = -.37772821E-2
MEAN_MOTION_DOT = -.1759455E-1
MEAN_MOTION_DDOT = .92081284E-3

