RASSVET-3 14            
1 68373U 26061P   26093.04927206  .00083524  12788-5  28336-3 0  9990
2 68373  82.2966  97.0006 0025743  35.4460 324.8516 15.89169452  1647
RASSVET-3 15            
1 68374U 26061Q   26093.04920583  .00082975  12475-5  28148-3 0  9995
2 68374  82.2967  97.0007 0025523  35.4749 324.8213 15.89180614  1643
RASSVET-3 16            
1 68375U 26061R   26093.23655591  .00110643  31451-5  36325-3 0  9996
2 68375  82.2956  96.7842 0024581  36.3033 323.9900 15.89888730  1674
SUPERVIEW NEO-2 OBJECT A
1 68377U 26062A   26093.28833616  .00005676  00000+0  26190-3 0  9998
2 68377  97.4363 101.6579 0006358 235.5724 124.4911 15.20613401  1279
SUPERVIEW NEO-2 OBJECT B
1 68378U 26062B   26090.72162118  .00004270  00000+0  19791-3 0  9995
2 68378  97.4347  99.1253 0008952 250.4427 109.5842 15.20585060   882
CZ-2D R/B               
1 68379U 26062C   26093.29602870  .00016687  00000+0  53255-3 0  9993
2 68379  97.4979 101.6626 0052837  32.6742 327.7749 15.31182364  1285
STARLINK-36296          
1 68380U 26063A   26092.75002315 -.01726598  88222-3 -38470-2 0  9993
2 68380  97.2834 233.5389 0001508  67.8630  74.8208 15.97982213  2320
STARLINK-37111          
1 68381U 26063B   26092.75002315 -.01724681  88159-3 -38169-2 0  9999
2 68381  97.2834 233.5399 0001571  67.6845  76.8108 15.98104329  2324
STARLINK-36946          
1 68382U 26063C   26092.75002315 -.01740716  89842-3 -38222-2 0  9997
2 68382  97.2827 233.5405 0001480  74.3083  72.6109 15.98248988  2328
STARLINK-37121          
1 68383U 26063D   26092.75002315 -.01739258  89964-3 -37639-2 0  9993
2 68383  97.2829 233.5429 0001607  66.6097  84.9503 15.98510861  2323
STARLINK-37137          
1 68384U 26063E   26092.75002315 -.01732404  89164-3 -37777-2 0  9995
2 68384  97.2831 233.5416 0001638  66.3758  82.6105 15.98372709  2328
STARLINK-37128          
1 68385U 26063F   26092.75002315 -.01759455  92081-3 -37773-2 0  9999
2 68385  97.2831 233.5440 0001616  74.3986  79.7580 15.98657525  2274
